NORAD_CAT_ID,OBJECT_NAME,OBJECT_TYPE,EPOCH,MEAN_MOTION,ECCENTRICITY,INCLINATION,RA_OF_ASC_NODE,ARG_OF_PERICENTER,MEAN_ANOMALY,BSTAR,MEAN_MOTION_DOT,MEAN_MOTION_DDOT,TLE_LINE0,TLE_LINE1,TLE_LINE2,SEMIMAJOR_AXIS,PERIOD,APOGEE,PERIGEE,DECAYED
53896.0,STARLINK-5037,PAYLOAD,2023-10-05 13:47:39,15.08852373,0.0001294,53.2151,341.8817,93.1755,266.9385,0.00062549,9.684e-05,0.0,0 STARLINK-5037,1 53896U 22119L   23278.57476224  .00009684  00000-0  62549-3 0  9991,2 53896  53.2151 341.8817 0001294  93.1755 266.9385 15.08852373 57911,6917.843,95.437,540.603,538.812,0.0
53896.0,STARLINK-5037,PAYLOAD,2023-10-06 10:27:40,15.08843231,0.0001688,53.2167,338.0153,99.7563,260.362,0.00047952,7.352e-05,0.0,0 STARLINK-5037,1 53896U 22119L   23279.43588807  .00007352  00000-0  47952-3 0  9999,2 53896  53.2167 338.0153 0001688  99.7563 260.3620 15.08843231 57626,6917.871,95.437,540.903,538.568,0.0
53896.0,STARLINK-5037,PAYLOAD,2023-10-06 13:38:26,15.08850501,0.0001748,53.2171,337.4205,98.0957,262.0234,0.00077265,0.00012034,0.0,0 STARLINK-5037,1 53896U 22119L   23279.56836737  .00012034  00000-0  77265-3 0  9994,2 53896  53.2171 337.4205 0001748  98.0957 262.0234 15.08850501 58065,6917.848,95.437,540.923,538.504,0.0
53896.0,STARLINK-5037,PAYLOAD,2023-10-06 21:35:22,15.08844633,0.0001707,53.2162,335.9352,92.9114,267.2073,0.00054246,8.357e-05,0.0,0 STARLINK-5037,1 53896U 22119L   23279.89956914  .00008357  00000-0  54246-3 0  9997,2 53896  53.2162 335.9352 0001707  92.9114 267.2073 15.08844633 58117,6917.866,95.437,540.912,538.55,0.0
53896.0,STARLINK-5037,PAYLOAD,2023-10-07 10:18:27,15.08843796,0.0001917,53.2171,333.5539,99.0739,261.047,0.00028007,4.172e-05,0.0,0 STARLINK-5037,1 53896U 22119L   23280.42948928  .00004172  00000-0  28007-3 0  9991,2 53896  53.2171 333.5539 0001917  99.0739 261.0470 15.08843796 57775,6917.869,95.437,541.06,538.408,0.0
53896.0,STARLINK-5037,PAYLOAD,2023-10-08 10:09:15,15.08843328,0.0001736,53.2173,329.094,86.7202,273.3988,0.00018386,2.64e-05,0.0,0 STARLINK-5037,1 53896U 22119L   23281.42309186  .00002640  00000-0  18386-3 0  9996,2 53896  53.2173 329.0940 0001736  86.7202 273.3988 15.08843328 57928,6917.87,95.437,540.936,538.534,0.0
53896.0,STARLINK-5037,PAYLOAD,2023-10-08 11:44:38,15.08844834,0.0001776,53.2176,328.797,87.348,272.7715,0.00021938,3.206e-05,0.0,0 STARLINK-5037,1 53896U 22119L   23281.48933167  .00003206  00000-0  21938-3 0  9990,2 53896  53.2176 328.7970 0001776  87.3480 272.7715 15.08844834 58351,6917.866,95.437,540.959,538.502,0.0
53896.0,STARLINK-5037,PAYLOAD,2023-10-08 19:41:34,15.08840469,0.0001788,53.2177,327.3106,85.9835,274.1362,0.00013013,1.784e-05,0.0,0 STARLINK-5037,1 53896U 22119L   23281.82053379  .00001784  00000-0  13013-3 0  9990,2 53896  53.2177 327.3106 0001788  85.9835 274.1362 15.08840469 58409,6917.879,95.438,540.981,538.507,0.0
53896.0,STARLINK-5037,PAYLOAD,2023-10-09 03:38:29,15.08840584,0.0001826,53.2179,325.8238,86.8032,273.3169,0.00014853,2.077e-05,0.0,0 STARLINK-5037,1 53896U 22119L   23282.15173461  .00002077  00000-0  14853-3 0  9991,2 53896  53.2179 325.8238 0001826  86.8032 273.3169 15.08840584 58035,6917.879,95.438,541.007,538.48,0.0
53896.0,STARLINK-5037,PAYLOAD,2023-10-09 10:00:01,15.08848752,0.0001781,53.2179,324.6368,93.8711,266.2485,0.00025653,3.798e-05,0.0,0 STARLINK-5037,1 53896U 22119L   23282.41668906  .00003798  00000-0  25653-3 0  9994,2 53896  53.2179 324.6368 0001781  93.8711 266.2485 15.08848752 58495,6917.854,95.437,540.951,538.487,0.0
53896.0,STARLINK-5037,PAYLOAD,2023-10-09 14:46:11,15.08857281,0.0001823,53.2181,323.7435,93.1482,266.9719,0.00042434,6.475e-05,0.0,0 STARLINK-5037,1 53896U 22119L   23282.61540557  .00006475  00000-0  42434-3 0  9998,2 53896  53.2181 323.7435 0001823  93.1482 266.9719 15.08857281 58100,6917.828,95.436,540.954,538.431,0.0
53896.0,STARLINK-5037,PAYLOAD,2023-10-10 09:50:48,15.08847064,0.0001761,53.2172,320.1773,99.9918,260.1273,0.00013394,1.845e-05,0.0,0 STARLINK-5037,1 53896U 22119L   23283.41028927  .00001845  00000-0  13394-3 0  9998,2 53896  53.2172 320.1773 0001761  99.9918 260.1273 15.08847064 58227,6917.859,95.437,540.942,538.506,0.0
53896.0,STARLINK-5037,PAYLOAD,2023-10-10 11:26:11,15.08852668,0.0001811,53.2178,319.8789,95.6101,264.5097,0.00025573,3.786e-05,0.0,0 STARLINK-5037,1 53896U 22119L   23283.47652768  .00003786  00000-0  25573-3 0  9998,2 53896  53.2178 319.8789 0001811  95.6101 264.5097 15.08852668 58653,6917.842,95.437,540.959,538.454,0.0
53896.0,STARLINK-5037,PAYLOAD,2023-10-10 13:01:34,15.08858861,0.0001658,53.2174,319.5802,92.2379,267.8803,0.00045847,7.02e-05,0.0,0 STARLINK-5037,1 53896U 22119L   23283.54276521  .00007020  00000-0  45847-3 0  9996,2 53896  53.2174 319.5802 0001658  92.2379 267.8803 15.08858861 58248,6917.823,95.436,540.835,538.541,0.0
53896.0,STARLINK-5037,PAYLOAD,2023-10-10 19:23:08,15.08838773,0.0002158,53.2178,318.3912,86.6893,273.4346,-1.7634e-05,-5.69e-06,0.0,0 STARLINK-5037,1 53896U 22119L   23283.80773219 -.00000569  00000-0 -17634-4 0  9998,2 53896  53.2178 318.3912 0002158  86.6893 273.4346 15.08838773 58701,6917.884,95.438,541.242,538.256,0.0
53896.0,STARLINK-5037,PAYLOAD,2023-10-11 01:44:40,15.08838182,0.0002469,53.2171,317.2023,87.0959,273.0316,9.244e-05,1.183e-05,0.0,0 STARLINK-5037,1 53896U 22119L   23284.07269227  .00001183  00000-0  92440-4 0  9996,2 53896  53.2171 317.2023 0002469  87.0959 273.0316 15.08838182 58323,6917.886,95.438,541.459,538.043,0.0
53896.0,STARLINK-5037,PAYLOAD,2023-10-11 09:41:36,15.08830072,0.0002,53.2183,315.7167,88.2269,271.8952,-0.0001243,-2.265e-05,0.0,0 STARLINK-5037,1 53896U 22119L   23284.40389928 -.00002265  00000-0 -12430-3 0  9998,2 53896  53.2183 315.7167 0002000  88.2269 271.8952 15.08830072 58373,6917.911,95.438,541.159,538.392,0.0
53896.0,STARLINK-5037,PAYLOAD,2023-10-11 19:13:55,15.08835329,0.0001956,53.2174,313.9308,88.5749,271.5467,4.0839e-05,3.62e-06,0.0,0 STARLINK-5037,1 53896U 22119L   23284.80133783  .00000362  00000-0  40839-4 0  9997,2 53896  53.2174 313.9308 0001956  88.5749 271.5467 15.08835329 58430,6917.895,95.438,541.113,538.407,0.0
53896.0,STARLINK-5037,PAYLOAD,2023-10-12 09:32:23,15.08849141,0.0001769,53.2167,311.2553,87.8528,272.2667,0.00046706,7.155e-05,0.0,0 STARLINK-5037,1 53896U 22119L   23285.39749694  .00007155  00000-0  46706-3 0  9991,2 53896  53.2167 311.2553 0001769  87.8528 272.2667 15.08849141 58521,6917.852,95.437,540.941,538.494,0.0
53896.0,STARLINK-5037,PAYLOAD,2023-10-12 11:07:46,15.08853035,0.0001866,53.2162,310.9572,86.5752,273.5453,0.00079589,0.00012406,0.0,0 STARLINK-5037,1 53896U 22119L   23285.46373757  .00012406  00000-0  79589-3 0  9992,2 53896  53.2162 310.9572 0001866  86.5752 273.5453 15.08853035 58957,6917.841,95.437,540.996,538.415,0.0
53896.0,STARLINK-5037,PAYLOAD,2023-10-13 07:47:47,15.08850985,0.0001868,53.2161,307.0905,99.3223,260.7981,0.00046844,7.177e-05,0.0,0 STARLINK-5037,1 53896U 22119L   23286.32485631  .00007177  00000-0  46844-3 0  9990,2 53896  53.2161 307.0905 0001868  99.3223 260.7981 15.08850985 58663,6917.847,95.437,541.004,538.42,0.0
53896.0,STARLINK-5037,PAYLOAD,2023-10-13 18:55:29,15.08845949,0.000196,53.2167,305.0066,99.1854,260.936,0.00048473,7.436e-05,0.0,0 STARLINK-5037,1 53896U 22119L   23286.78853603  .00007436  00000-0  48473-3 0  9996,2 53896  53.2167 305.0066 0001960  99.1854 260.9360 15.08845949 58731,6917.862,95.437,541.083,538.371,0.0
53896.0,STARLINK-5037,PAYLOAD,2023-10-14 07:38:34,15.08847586,0.0001982,53.2169,302.6296,95.3614,264.7604,0.00082617,0.00012888,0.0,0 STARLINK-5037,1 53896U 22119L   23287.31845663  .00012888  00000-0  82617-3 0  9998,2 53896  53.2169 302.6296 0001982  95.3614 264.7604 15.08847586 59235,6917.857,95.437,541.093,538.351,0.0
53896.0,STARLINK-5037,PAYLOAD,2023-10-15 01:07:49,15.08834642,0.0001947,53.2155,299.3559,97.2819,262.8394,0.00013873,1.92e-05,0.0,0 STARLINK-5037,1 53896U 22119L   23288.04710337  .00001920  00000-0  13873-3 0  9991,2 53896  53.2155 299.3559 0001947  97.2819 262.8394 15.08834642 58922,6917.897,95.438,541.109,538.415,0.0
53896.0,STARLINK-5037,PAYLOAD,2023-10-15 07:29:22,15.08830748,0.0001727,53.2161,298.1679,87.6244,272.4946,2.1159e-05,4.9e-07,0.0,0 STARLINK-5037,1 53896U 22119L   23288.31206671  .00000049  00000-0  21159-4 0  9990,2 53896  53.2161 298.1679 0001727  87.6244 272.4946 15.08830748 59384,6917.909,95.438,540.968,538.579,0.0
53896.0,STARLINK-5037,PAYLOAD,2023-10-16 04:09:23,15.08844895,0.0001574,53.2165,294.3014,103.2065,256.9103,0.00037654,5.711e-05,0.0,0 STARLINK-5037,1 53896U 22119L   23289.17318454  .00005711  00000-0  37654-3 0  9995,2 53896  53.2165 294.3014 0001574 103.2065 256.9103 15.08844895 59093,6917.865,95.437,540.819,538.642,0.0
53896.0,STARLINK-5037,PAYLOAD,2023-10-16 10:30:55,15.08858726,0.0001572,53.2166,293.1133,87.8261,272.2911,0.0008113,0.00012654,0.0,0 STARLINK-5037,1 53896U 22119L   23289.43814255  .00012654  00000-0  81130-3 0  9996,2 53896  53.2166 293.1133 0001572  87.8261 272.2911 15.08858726 59553,6917.823,95.436,540.776,538.601,0.0
53896.0,STARLINK-5037,PAYLOAD,2023-10-17 07:10:56,15.08857287,0.0001661,53.2168,289.2491,101.4496,258.6682,0.0004663,7.144e-05,0.0,0 STARLINK-5037,1 53896U 22119L   23290.29925969  .00007144  00000-0  46630-3 0  9991,2 53896  53.2168 289.2491 0001661 101.4496 258.6682 15.08857287 59262,6917.828,95.436,540.842,538.543,0.0
53896.0,STARLINK-5037,PAYLOAD,2023-10-17 16:43:14,15.08847144,0.0001644,53.2167,287.4643,96.5255,263.5925,0.00040523,6.168e-05,0.0,0 STARLINK-5037,1 53896U 22119L   23290.69669907  .00006168  00000-0  40523-3 0  9992,2 53896  53.2167 287.4643 0001644  96.5255 263.5925 15.08847144 59321,6917.859,95.437,540.861,538.586,0.0
53896.0,STARLINK-5037,PAYLOAD,2023-10-18 00:40:10,15.08836113,0.0001721,53.2174,285.9777,99.1165,261.0022,0.00025509,3.774e-05,0.0,0 STARLINK-5037,1 53896U 22119L   23291.02790291  .00003774  00000-0  25509-3 0  9998,2 53896  53.2174 285.9777 0001721  99.1165 261.0022 15.08836113 59375,6917.892,95.438,540.948,538.567,0.0
